{
  "type": "FeatureCollection",
  "features": [
    {
      "type": "Feature",
      "properties": {
        "norad_id": 29954,
        "name": "FENGYUN 1C DEB",
        "group": "fengyun-1c-debris",
        "lat": 43.27073688522434,
        "lon": 31.716829843242973,
        "alt_km": 827.0354331433855,
        "timestamp": "2025-12-26T21:25:53.282967+00:00",
        "meta_object_name": "FENGYUN 1C DEB",
        "meta_object_id": "1999-025KC",
        "meta_epoch": "2025-12-26T14:31:36.678432",
        "meta_mean_motion": 14.34294476,
        "meta_eccentricity": 0.00748058,
        "meta_inclination": 100.1497,
        "meta_ra_of_asc_node": 41.0882,
        "meta_arg_of_pericenter": 230.1955,
        "meta_mean_anomaly": 129.2623,
        "meta_ephemeris_type": 0,
        "meta_classification_type": "U",
        "meta_norad_cat_id": 29954,
        "meta_element_set_no": 999,
        "meta_rev_at_epoch": 98386,
        "meta_bstar": 0.00084131621,
        "meta_mean_motion_dot": 2.381e-05,
        "meta_mean_motion_ddot": 0,
        "tle_line1": "1 29954U 99025KC  25360.60528563  .00002381  00000+0  84132-3 0  9999",
        "tle_line2": "2 29954 100.1497  41.0882 0074805 230.1955 129.2623 14.34294476983868"
      },
      "geometry": {
        "type": "Point",
        "coordinates": [
          31.716829843242973,
          43.27073688522434
        ]
      }
    },
    {
      "type": "Feature",
      "properties": {
        "norad_id": 29955,
        "name": "FENGYUN 1C DEB",
        "group": "fengyun-1c-debris",
        "lat": -18.781218245997263,
        "lon": 85.86665049156912,
        "alt_km": 772.882352195923,
        "timestamp": "2025-12-26T21:25:53.282977+00:00",
        "meta_object_name": "FENGYUN 1C DEB",
        "meta_object_id": "1999-025KD",
        "meta_epoch": "2025-12-26T05:04:54.539040",
        "meta_mean_motion": 14.38355753,
        "meta_eccentricity": 0.00083786,
        "meta_inclination": 99.2725,
        "meta_ra_of_asc_node": 81.9469,
        "meta_arg_of_pericenter": 211.639,
        "meta_mean_anomaly": 203.8524,
        "meta_ephemeris_type": 0,
        "meta_classification_type": "U",
        "meta_norad_cat_id": 29955,
        "meta_element_set_no": 999,
        "meta_rev_at_epoch": 98255,
        "meta_bstar": 0.0015304992,
        "meta_mean_motion_dot": 4.617e-05,
        "meta_mean_motion_ddot": 0,
        "tle_line1": "1 29955U 99025KD  25360.21174235  .00004617  00000+0  15305-2 0  9999",
        "tle_line2": "2 29955  99.2725  81.9469 0008378 211.6390 203.8524 14.38355753982558"
      },
      "geometry": {
        "type": "Point",
        "coordinates": [
          85.86665049156912,
          -18.781218245997263
        ]
      }
    },
    {
      "type": "Feature",
      "properties": {
        "norad_id": 29956,
        "name": "FENGYUN 1C DEB",
        "group": "fengyun-1c-debris",
        "lat": -28.376772759904867,
        "lon": -155.45932250320806,
        "alt_km": 902.4093429629866,
        "timestamp": "2025-12-26T21:25:53.282988+00:00",
        "meta_object_name": "FENGYUN 1C DEB",
        "meta_object_id": "1999-025KE",
        "meta_epoch": "2025-12-26T08:48:42.259392",
        "meta_mean_motion": 14.0617484,
        "meta_eccentricity": 0.00530444,
        "meta_inclination": 98.7904,
        "meta_ra_of_asc_node": 28.8248,
        "meta_arg_of_pericenter": 339.2467,
        "meta_mean_anomaly": 89.5096,
        "meta_ephemeris_type": 0,
        "meta_classification_type": "U",
        "meta_norad_cat_id": 29956,
        "meta_element_set_no": 999,
        "meta_rev_at_epoch": 97241,
        "meta_bstar": 6.3156153e-05,
        "meta_mean_motion_dot": 6.2e-07,
        "meta_mean_motion_ddot": 0,
        "tle_line1": "1 29956U 99025KE  25360.36715578  .00000062  00000+0  63156-4 0  9996",
        "tle_line2": "2 29956  98.7904  28.8248 0053044 339.2467  89.5096 14.06174840972417"
      },
      "geometry": {
        "type": "Point",
        "coordinates": [
          -155.45932250320806,
          -28.376772759904867
        ]
      }
    },
    {
      "type": "Feature",
      "properties": {
        "norad_id": 29957,
        "name": "FENGYUN 1C DEB",
        "group": "fengyun-1c-debris",
        "lat": 40.37081588548141,
        "lon": 121.04703255934677,
        "alt_km": 719.7843982183504,
        "timestamp": "2025-12-26T21:25:53.282998+00:00",
        "meta_object_name": "FENGYUN 1C DEB",
        "meta_object_id": "1999-025KF",
        "meta_epoch": "2025-12-26T14:42:38.727072",
        "meta_mean_motion": 14.51587615,
        "meta_eccentricity": 0.00360261,
        "meta_inclination": 98.9213,
        "meta_ra_of_asc_node": 128.4246,
        "meta_arg_of_pericenter": 137.8123,
        "meta_mean_anomaly": 241.1367,
        "meta_ephemeris_type": 0,
        "meta_classification_type": "U",
        "meta_norad_cat_id": 29957,
        "meta_element_set_no": 999,
        "meta_rev_at_epoch": 97693,
        "meta_bstar": 0.004676132,
        "meta_mean_motion_dot": 0.00018884,
        "meta_mean_motion_ddot": 0,
        "tle_line1": "1 29957U 99025KF  25360.61294823  .00018884  00000+0  46761-2 0  9992",
        "tle_line2": "2 29957  98.9213 128.4246 0036026 137.8123 241.1367 14.51587615976936"
      },
      "geometry": {
        "type": "Point",
        "coordinates": [
          121.04703255934677,
          40.37081588548141
        ]
      }
    },
    {
      "type": "Feature",
      "properties": {
        "norad_id": 29958,
        "name": "FENGYUN 1C DEB",
        "group": "fengyun-1c-debris",
        "lat": -56.13027634337473,
        "lon": -178.29279251321094,
        "alt_km": 828.7486154718563,
        "timestamp": "2025-12-26T21:25:53.283008+00:00",
        "meta_object_name": "FENGYUN 1C DEB",
        "meta_object_id": "1999-025KG",
        "meta_epoch": "2025-12-26T11:49:14.000160",
        "meta_mean_motion": 14.14475199,
        "meta_eccentricity": 0.00538427,
        "meta_inclination": 98.6682,
        "meta_ra_of_asc_node": 14.4554,
        "meta_arg_of_pericenter": 293.3449,
        "meta_mean_anomaly": 66.2065,
        "meta_ephemeris_type": 0,
        "meta_classification_type": "U",
        "meta_norad_cat_id": 29958,
        "meta_element_set_no": 999,
        "meta_rev_at_epoch": 97645,
        "meta_bstar": 0.0003533927,
        "meta_mean_motion_dot": 6.44e-06,
        "meta_mean_motion_ddot": 0,
        "tle_line1": "1 29958U 99025KG  25360.49252315  .00000644  00000+0  35339-3 0  9994",
        "tle_line2": "2 29958  98.6682  14.4554 0053842 293.3449  66.2065 14.14475199976454"
      },
      "geometry": {
        "type": "Point",
        "coordinates": [
          -178.29279251321094,
          -56.13027634337473
        ]
      }
    },
    {
      "type": "Feature",
      "properties": {
        "norad_id": 29959,
        "name": "FENGYUN 1C DEB",
        "group": "fengyun-1c-debris",
        "lat": 35.025908974253994,
        "lon": -142.59577993732577,
        "alt_km": 894.5386820681006,
        "timestamp": "2025-12-26T21:25:53.283018+00:00",
        "meta_object_name": "FENGYUN 1C DEB",
        "meta_object_id": "1999-025KH",
        "meta_epoch": "2025-12-26T14:30:34.058304",
        "meta_mean_motion": 14.06022481,
        "meta_eccentricity": 0.00413888,
        "meta_inclination": 98.8069,
        "meta_ra_of_asc_node": 30.8859,
        "meta_arg_of_pericenter": 288.2043,
        "meta_mean_anomaly": 197.4203,
        "meta_ephemeris_type": 0,
        "meta_classification_type": "U",
        "meta_norad_cat_id": 29959,
        "meta_element_set_no": 999,
        "meta_rev_at_epoch": 97135,
        "meta_bstar": 0.00021215801,
        "meta_mean_motion_dot": 3.07e-06,
        "meta_mean_motion_ddot": 0,
        "tle_line1": "1 29959U 99025KH  25360.60456086  .00000307  00000+0  21216-3 0  9994",
        "tle_line2": "2 29959  98.8069  30.8859 0041388 288.2043 197.4203 14.06022481971359"
      },
      "geometry": {
        "type": "Point",
        "coordinates": [
          -142.59577993732577,
          35.025908974253994
        ]
      }
    },
    {
      "type": "Feature",
      "properties": {
        "norad_id": 29960,
        "name": "FENGYUN 1C DEB",
        "group": "fengyun-1c-debris",
        "lat": 28.899675600817798,
        "lon": -18.791151738956913,
        "alt_km": 888.9380616916269,
        "timestamp": "2025-12-26T21:25:53.283028+00:00",
        "meta_object_name": "FENGYUN 1C DEB",
        "meta_object_id": "1999-025KJ",
        "meta_epoch": "2025-12-25T11:57:46.792800",
        "meta_mean_motion": 14.1642486,
        "meta_eccentricity": 0.0090805,
        "meta_inclination": 98.6159,
        "meta_ra_of_asc_node": 344.66,
        "meta_arg_of_pericenter": 249.2424,
        "meta_mean_anomaly": 232.6666,
        "meta_ephemeris_type": 0,
        "meta_classification_type": "U",
        "meta_norad_cat_id": 29960,
        "meta_element_set_no": 999,
        "meta_rev_at_epoch": 97635,
        "meta_bstar": 0.00038639,
        "meta_mean_motion_dot": 7.56e-06,
        "meta_mean_motion_ddot": 0,
        "tle_line1": "1 29960U 99025KJ  25359.49845825  .00000756  00000+0  38639-3 0  9999",
        "tle_line2": "2 29960  98.6159 344.6600 0090805 249.2424 232.6666 14.16424860976355"
      },
      "geometry": {
        "type": "Point",
        "coordinates": [
          -18.791151738956913,
          28.899675600817798
        ]
      }
    }
  ]
}